{"type": "FeatureCollection", "features": [ {"type": "Feature", "properties": {"norad_id": 29853, "name": "FENGYUN 1C DEB", "group": "fengyun-1c-debris", "lat": -47.289834247034904, "lon": -77.99081420331017, "alt_km": 807.6694560241767, "timestamp": "2025-12-15T22:44:29.199583+00:00", "meta": {"OBJECT_NAME": "FENGYUN 1C DEB", "OBJECT_ID": "1999-025EX", "EPOCH": "2025-12-15T07:51:55.793376", "MEAN_MOTION": 13.93806114, "ECCENTRICITY": 0.01616411, "INCLINATION": 98.4571, "RA_OF_ASC_NODE": 110.7166, "ARG_OF_PERICENTER": 215.3773, "MEAN_ANOMALY": 143.6581, "EPHEMERIS_TYPE": 0, "CLASSIFICATION_TYPE": "U", "NORAD_CAT_ID": 29853, "ELEMENT_SET_NO": 999, "REV_AT_EPOCH": 95705, "BSTAR": 0.0013009328, "MEAN_MOTION_DOT": 1.871e-05, "MEAN_MOTION_DDOT": 0}, "tle": {"line1": "1 29853U 99025EX  25349.32772909  .00001871  00000+0  13009-2 0  9995", "line2": "2 29853  98.4571 110.7166 0161641 215.3773 143.6581 13.93806114957052"}}, "geometry": {"type": "Point", "coordinates": [-77.99081420331017, -47.289834247034904]}}, {"type": "Feature", "properties": {"norad_id": 29854, "name": "FENGYUN 1C DEB", "group": "fengyun-1c-debris", "lat": -2.9620747188791676, "lon": 151.38669386088935, "alt_km": 878.250169680503, "timestamp": "2025-12-15T22:44:29.199594+00:00", "meta": {"OBJECT_NAME": "FENGYUN 1C DEB", "OBJECT_ID": "1999-025EY", "EPOCH": "2025-12-15T09:11:10.215168", "MEAN_MOTION": 13.83343231, "ECCENTRICITY": 0.01472514, "INCLINATION": 98.9272, "RA_OF_ASC_NODE": 150.3846, "ARG_OF_PERICENTER": 43.7058, "MEAN_ANOMALY": 23.3793, "EPHEMERIS_TYPE": 0, "CLASSIFICATION_TYPE": "U", "NORAD_CAT_ID": 29854, "ELEMENT_SET_NO": 999, "REV_AT_EPOCH": 95380, "BSTAR": 0.00029050836, "MEAN_MOTION_DOT": 3.06e-06, "MEAN_MOTION_DDOT": 0}, "tle": {"line1": "1 29854U 99025EY  25349.38275712  .00000306  00000+0  29051-3 0  9999", "line2": "2 29854  98.9272 150.3846 0147251  43.7058  23.3793 13.83343231953804"}}, "geometry": {"type": "Point", "coordinates": [151.38669386088935, -2.9620747188791676]}}, {"type": "Feature", "properties": {"norad_id": 29855, "name": "FENGYUN 1C DEB", "group": "fengyun-1c-debris", "lat": 11.916874892981436, "lon": -70.41881597995318, "alt_km": 767.8206504324526, "timestamp": "2025-12-15T22:44:29.199604+00:00", "meta": {"OBJECT_NAME": "FENGYUN 1C DEB", "OBJECT_ID": "1999-025EZ", "EPOCH": "2025-12-14T19:31:19.263360", "MEAN_MOTION": 14.01600662, "ECCENTRICITY": 0.01840218, "INCLINATION": 98.1804, "RA_OF_ASC_NODE": 290.3028, "ARG_OF_PERICENTER": 40.3687, "MEAN_ANOMALY": 13.252, "EPHEMERIS_TYPE": 0, "CLASSIFICATION_TYPE": "U", "NORAD_CAT_ID": 29855, "ELEMENT_SET_NO": 999, "REV_AT_EPOCH": 95741, "BSTAR": 0.0021692494, "MEAN_MOTION_DOT": 3.772e-05, "MEAN_MOTION_DDOT": 0}, "tle": {"line1": "1 29855U 99025EZ  25348.81341740  .00003772  00000+0  21692-2 0  9994", "line2": "2 29855  98.1804 290.3028 0184021  40.3687  13.2520 14.01600662957414"}}, "geometry": {"type": "Point", "coordinates": [-70.41881597995318, 11.916874892981436]}}, {"type": "Feature", "properties": {"norad_id": 29856, "name": "FENGYUN 1C DEB", "group": "fengyun-1c-debris", "lat": 81.25856092184789, "lon": 0.017434912664077457, "alt_km": 900.9525149282345, "timestamp": "2025-12-15T22:44:29.199614+00:00", "meta": {"OBJECT_NAME": "FENGYUN 1C DEB", "OBJECT_ID": "1999-025FA", "EPOCH": "2025-12-14T04:59:41.981856", "MEAN_MOTION": 14.4779985, "ECCENTRICITY": 0.02624086, "INCLINATION": 98.6884, "RA_OF_ASC_NODE": 82.2103, "ARG_OF_PERICENTER": 293.433, "MEAN_ANOMALY": 93.6687, "EPHEMERIS_TYPE": 0, "CLASSIFICATION_TYPE": "U", "NORAD_CAT_ID": 29856, "ELEMENT_SET_NO": 999, "REV_AT_EPOCH": 96396, "BSTAR": 0.0026085922, "MEAN_MOTION_DOT": 0.00014883, "MEAN_MOTION_DDOT": 0}, "tle": {"line1": "1 29856U 99025FA  25348.20812479  .00014883  00000+0  26086-2 0  9997", "line2": "2 29856  98.6884  82.2103 0262408 293.4330  93.6687 14.47799850963963"}}, "geometry": {"type": "Point", "coordinates": [0.017434912664077457, 81.25856092184789]}}, {"type": "Feature", "properties": {"norad_id": 29857, "name": "FENGYUN 1C DEB", "group": "fengyun-1c-debris", "lat": -28.08581998273553, "lon": 172.40490113632012, "alt_km": 929.3160915736253, "timestamp": "2025-12-15T22:44:29.199624+00:00", "meta": {"OBJECT_NAME": "FENGYUN 1C DEB", "OBJECT_ID": "1999-025FB", "EPOCH": "2025-12-14T00:32:09.267936", "MEAN_MOTION": 13.8188601, "ECCENTRICITY": 0.01927571, "INCLINATION": 98.4232, "RA_OF_ASC_NODE": 355.2187, "ARG_OF_PERICENTER": 290.898, "MEAN_ANOMALY": 67.1637, "EPHEMERIS_TYPE": 0, "CLASSIFICATION_TYPE": "U", "NORAD_CAT_ID": 29857, "ELEMENT_SET_NO": 999, "REV_AT_EPOCH": 94793, "BSTAR": 0.0020345049, "MEAN_MOTION_DOT": 2.474e-05, "MEAN_MOTION_DDOT": 0}, "tle": {"line1": "1 29857U 99025FB  25348.02232949  .00002474  00000+0  20345-2 0  9991", "line2": "2 29857  98.4232 355.2187 0192757 290.8980  67.1637 13.81886010947937"}}, "geometry": {"type": "Point", "coordinates": [172.40490113632012, -28.08581998273553]}}, {"type": "Feature", "properties": {"norad_id": 29858, "name": "FENGYUN 1C DEB", "group": "fengyun-1c-debris", "lat": 64.0621465037401, "lon": 71.98990575088524, "alt_km": 821.7349727884639, "timestamp": "2025-12-15T22:44:29.199635+00:00", "meta": {"OBJECT_NAME": "FENGYUN 1C DEB", "OBJECT_ID": "1999-025FC", "EPOCH": "2025-12-14T19:09:57.053664", "MEAN_MOTION": 13.77793222, "ECCENTRICITY": 0.01982427, "INCLINATION": 99.2127, "RA_OF_ASC_NODE": 90.3662, "ARG_OF_PERICENTER": 58.897, "MEAN_ANOMALY": 70.4267, "EPHEMERIS_TYPE": 0, "CLASSIFICATION_TYPE": "U", "NORAD_CAT_ID": 29858, "ELEMENT_SET_NO": 999, "REV_AT_EPOCH": 94582, "BSTAR": 0.0011100307, "MEAN_MOTION_DOT": 1.243e-05, "MEAN_MOTION_DDOT": 0}, "tle": {"line1": "1 29858U 99025FC  25348.79857701  .00001243  00000+0  11100-2 0  9997", "line2": "2 29858  99.2127  90.3662 0198242  58.8970  70.4267 13.77793222945820"}}, "geometry": {"type": "Point", "coordinates": [71.98990575088524, 64.0621465037401]}}, {"type": "Feature", "properties": {"norad_id": 29859, "name": "FENGYUN 1C DEB", "group": "fengyun-1c-debris", "lat": -57.70380607412018, "lon": -162.32760099265334, "alt_km": 1012.5160956308036, "timestamp": "2025-12-15T22:44:29.199645+00:00", "meta": {"OBJECT_NAME": "FENGYUN 1C DEB", "OBJECT_ID": "1999-025FD", "EPOCH": "2025-12-15T02:03:50.594400", "MEAN_MOTION": 13.74049373, "ECCENTRICITY": 0.02947877, "INCLINATION": 98.3355, "RA_OF_ASC_NODE": 183.5079, "ARG_OF_PERICENTER": 206.6317, "MEAN_ANOMALY": 151.9433, "EPHEMERIS_TYPE": 0, "CLASSIFICATION_TYPE": "U", "NORAD_CAT_ID": 29859, "ELEMENT_SET_NO": 999, "REV_AT_EPOCH": 94012, "BSTAR": 0.0019094733, "MEAN_MOTION_DOT": 2.42e-05, "MEAN_MOTION_DDOT": 0}, "tle": {"line1": "1 29859U 99025FD  25349.08600225  .00002420  00000+0  19095-2 0  9997", "line2": "2 29859  98.3355 183.5079 0294787 206.6317 151.9433 13.74049373940126"}}, "geometry": {"type": "Point", "coordinates": [-162.32760099265334, -57.70380607412018]}}, {"type": "Feature", "properties": {"norad_id": 29860, "name": "FENGYUN 1C DEB", "group": "fengyun-1c-debris", "lat": 57.74561220033313, "lon": -142.5290556340118, "alt_km": 1101.5250298512365, "timestamp": "2025-12-15T22:44:29.199656+00:00", "meta": {"OBJECT_NAME": "FENGYUN 1C DEB", "OBJECT_ID": "1999-025FE", "EPOCH": "2025-12-15T01:22:33.980736", "MEAN_MOTION": 13.77541829, "ECCENTRICITY": 0.02210952, "INCLINATION": 98.618, "RA_OF_ASC_NODE": 22.7577, "ARG_OF_PERICENTER": 336.9825, "MEAN_ANOMALY": 50.3926, "EPHEMERIS_TYPE": 0, "CLASSIFICATION_TYPE": "U", "NORAD_CAT_ID": 29860, "ELEMENT_SET_NO": 999, "REV_AT_EPOCH": 94171, "BSTAR": 0.0020035718, "MEAN_MOTION_DOT": 2.352e-05, "MEAN_MOTION_DDOT": 0}, "tle": {"line1": "1 29860U 99025FE  25349.05733774  .00002352  00000+0  20036-2 0  9993", "line2": "2 29860  98.6180  22.7577 0221095 336.9825  50.3926 13.77541829941718"}}, "geometry": {"type": "Point", "coordinates": [-142.5290556340118, 57.74561220033313]}}, {"type": "Feature", "properties": {"norad_id": 29865, "name": "FENGYUN 1C DEB", "group": "fengyun-1c-debris", "lat": -14.152171915756837, "lon": -96.6609957644288, "alt_km": 692.4616788607955, "timestamp": "2025-12-15T22:44:29.199667+00:00", "meta": {"OBJECT_NAME": "FENGYUN 1C DEB", "OBJECT_ID": "1999-025FK", "EPOCH": "2025-12-15T07:08:23.631936", "MEAN_MOTION": 14.82627295, "ECCENTRICITY": 0.01164319, "INCLINATION": 98.9206, "RA_OF_ASC_NODE": 260.3446, "ARG_OF_PERICENTER": 133.2655, "MEAN_ANOMALY": 345.6492, "EPHEMERIS_TYPE": 0, "CLASSIFICATION_TYPE": "U", "NORAD_CAT_ID": 29865, "ELEMENT_SET_NO": 999, "REV_AT_EPOCH": 796, "BSTAR": 0.00035415327, "MEAN_MOTION_DOT": 3.139e-05, "MEAN_MOTION_DDOT": 0}, "tle": {"line1": "1 29865U 99025FK  25349.29749574  .00003139  00000+0  35415-3 0  9991", "line2": "2 29865  98.9206 260.3446 0116431 133.2655 345.6492 14.82627295  7963"}}, "geometry": {"type": "Point", "coordinates": [-96.6609957644288, -14.152171915756837]}}, {"type": "Feature", "properties": {"norad_id": 29866, "name": "FENGYUN 1C DEB", "group": "fengyun-1c-debris", "lat": -80.86925369727975, "lon": 94.06558360627784, "alt_km": 618.2143866526749, "timestamp": "2025-12-15T22:44:29.199677+00:00", "meta": {"OBJECT_NAME": "FENGYUN 1C DEB", "OBJECT_ID": "1999-025FL", "EPOCH": "2025-12-15T05:12:44.676864", "MEAN_MOTION": 14.64223502, "ECCENTRICITY": 0.01945154, "INCLINATION": 98.0374, "RA_OF_ASC_NODE": 334.8918, "ARG_OF_PERICENTER": 207.0073, "MEAN_ANOMALY": 169.0488, "EPHEMERIS_TYPE": 0, "CLASSIFICATION_TYPE": "U", "NORAD_CAT_ID": 29866, "ELEMENT_SET_NO": 999, "REV_AT_EPOCH": 363, "BSTAR": 0.00022436167, "MEAN_MOTION_DOT": 1.499e-05, "MEAN_MOTION_DDOT": 0}, "tle": {"line1": "1 29866U 99025FL  25349.21718376  .00001499  00000+0  22436-3 0  9996", "line2": "2 29866  98.0374 334.8918 0194515 207.0073 169.0488 14.64223502  3631"}}, "geometry": {"type": "Point", "coordinates": [94.06558360627784, -80.86925369727975]}}]}